{
  "norad_id": 67952,
  "name": "STARLINK-36381",
  "history": [
    {
      "epoch": "2026-03-28T11:27:14.986656Z",
      "apogee_km": 416.3639619593532,
      "perigee_km": 413.6632769990729,
      "latitude_deg": -3.348442162654281e-06,
      "longitude_deg": 87.81311051003767,
      "height_km": 413.5565210111689,
      "semi_major_axis_km": 6793.150619479213,
      "eccentricity": 0.00019878,
      "inclination_deg": 42.9987,
      "raan_deg": 85.5227,
      "arg_perigee_deg": 24.436,
      "mean_anomaly_deg": 335.6594,
      "mean_motion_rev_day": 15.50586134
    }
  ]
}