{"fetched_at":"2026-03-29T02:12:04Z","count":15717,"tles":[{"name":"STARLINK-36381","line1":"1 67952U 26037W   26087.47725679  .00085878  00000+0  14533-2 0  9990","line2":"2 67952  42.9987  85.5227 0001987  24.4360 335.6594 15.50586134  6204","category":"Starlink"}]}